start=new Date('2021-11-11T00:00:00.000Z').valueOf();
sats=[{"FILE":"3211038","CLASSIFICATION_TYPE":"U","REF_FRAME":"TEME","BSTAR":"0.00000466200000","RCS_SIZE":"LARGE","INCLINATION":"53.0551","NORAD_CAT_ID":"48455","SEMIMAJOR_AXIS":"6925.341","PERIOD":"95.592","ELEMENT_SET_NO":"999","OBJECT_NAME":"STARLINK-2497","MEAN_ANOMALY":"282.0929","ARG_OF_PERICENTER":"78.0188","ECCENTRICITY":"0.00011400","CENTER_NAME":"EARTH","PERIAPSIS":"546.416","MEAN_MOTION_DOT":"-0.00000212","GP_ID":"189425964","MEAN_MOTION_DDOT":"0.0000000000000","TIME_SYSTEM":"UTC","RA_OF_ASC_NODE":"74.0975","DECAY_DATE":null,"APOAPSIS":"547.995","EPHEMERIS_TYPE":"0","REV_AT_EPOCH":"2849","TLE_LINE1":"1 48455U 21040AD  21314.78098198 -.00000212  00000-0  46620-5 0  9993","OBJECT_TYPE":"PAYLOAD","SITE":"AFETR","LAUNCH_DATE":"2021-05-09","EPOCH":"2021-11-10T18:44:36.843072","MEAN_ELEMENT_THEORY":"SGP4","COUNTRY_CODE":"US","OBJECT_ID":"2021-040AD","TLE_LINE2":"2 48455  53.0551  74.0975 0001140  78.0188 282.0929 15.06402567 28498","MEAN_MOTION":"15.06402567"},{"TLE_LINE2":"2 48456  53.0554  74.1178 0001327  87.9844 272.1297 15.06402091 28493","MEAN_MOTION":"15.06402091","OBJECT_ID":"2021-040AE","COUNTRY_CODE":"US","MEAN_ELEMENT_THEORY":"SGP4","EPOCH":"2021-11-10T18:39:18.239616","LAUNCH_DATE":"2021-05-09","SITE":"AFETR","OBJECT_TYPE":"PAYLOAD","TLE_LINE1":"1 48456U 21040AE  21314.77729444 -.00000117  00000-0  11024-4 0  9991","REV_AT_EPOCH":"2849","EPHEMERIS_TYPE":"0","APOAPSIS":"548.126","DECAY_DATE":null,"RA_OF_ASC_NODE":"74.1178","TIME_SYSTEM":"UTC","MEAN_MOTION_DDOT":"0.0000000000000","GP_ID":"189426082","PERIAPSIS":"546.288","MEAN_MOTION_DOT":"-0.00000117","CENTER_NAME":"EARTH","ECCENTRICITY":"0.00013270","ARG_OF_PERICENTER":"87.9844","MEAN_ANOMALY":"272.1297","OBJECT_NAME":"STARLINK-2508","ELEMENT_SET_NO":"999","PERIOD":"95.592","SEMIMAJOR_AXIS":"6925.342","INCLINATION":"53.0554","NORAD_CAT_ID":"48456","RCS_SIZE":"LARGE","BSTAR":"0.00001102400000","REF_FRAME":"TEME","CLASSIFICATION_TYPE":"U","FILE":"3211038"},{"COUNTRY_CODE":"US","OBJECT_ID":"2021-040AG","TLE_LINE2":"2 48458  53.0566  80.2821 0001407  82.3417 277.7732 15.06397536 29106","MEAN_MOTION":"15.06397536","LAUNCH_DATE":"2021-05-09","EPOCH":"2021-11-10T12:23:06.816768","MEAN_ELEMENT_THEORY":"SGP4","DECAY_DATE":null,"APOAPSIS":"548.196","EPHEMERIS_TYPE":"0","RA_OF_ASC_NODE":"80.2821","REV_AT_EPOCH":"2910","TLE_LINE1":"1 48458U 21040AG  21314.51605112  .00000202  00000-0  32429-4 0  9996","OBJECT_TYPE":"PAYLOAD","SITE":"AFETR","ECCENTRICITY":"0.00014070","ARG_OF_PERICENTER":"82.3417","TIME_SYSTEM":"UTC","CENTER_NAME":"EARTH","PERIAPSIS":"546.247","MEAN_MOTION_DOT":"0.00000202","GP_ID":"189425310","MEAN_MOTION_DDOT":"0.0000000000000","BSTAR":"0.00003242900000","FILE":"3211038","CLASSIFICATION_TYPE":"U","REF_FRAME":"TEME","PERIOD":"95.592","ELEMENT_SET_NO":"999","OBJECT_NAME":"STARLINK-2698","MEAN_ANOMALY":"277.7732","RCS_SIZE":"LARGE","INCLINATION":"53.0566","NORAD_CAT_ID":"48458","SEMIMAJOR_AXIS":"6925.356"},{"TIME_SYSTEM":"UTC","PERIAPSIS":"546.328","MEAN_MOTION_DOT":"0.00004550","CENTER_NAME":"EARTH","GP_ID":"189425888","MEAN_MOTION_DDOT":"0.0000000000000","ECCENTRICITY":"0.00012180","ARG_OF_PERICENTER":"81.5465","ELEMENT_SET_NO":"999","PERIOD":"95.591","OBJECT_NAME":"STARLINK-2579","MEAN_ANOMALY":"278.5662","RCS_SIZE":"LARGE","NORAD_CAT_ID":"48459","INCLINATION":"53.0552","SEMIMAJOR_AXIS":"6925.307","BSTAR":"0.00032402000000","FILE":"3211038","CLASSIFICATION_TYPE":"U","REF_FRAME":"TEME","COUNTRY_CODE":"US","TLE_LINE2":"2 48459  53.0552  79.2449 0001218  81.5465 278.5662 15.06413650 28432","OBJECT_ID":"2021-040AH","MEAN_MOTION":"15.06413650","LAUNCH_DATE":"2021-05-09","EPOCH":"2021-11-10T17:57:28.574496","MEAN_ELEMENT_THEORY":"SGP4","REV_AT_EPOCH":"2843","TLE_LINE1":"1 48459U 21040AH  21314.74824739  .00004550  00000-0  32402-3 0  9990","OBJECT_TYPE":"PAYLOAD","SITE":"AFETR","DECAY_DATE":null,"APOAPSIS":"548.015","EPHEMERIS_TYPE":"0","RA_OF_ASC_NODE":"79.2449"},{"DECAY_DATE":null,"APOAPSIS":"548.103","EPHEMERIS_TYPE":"0","RA_OF_ASC_NODE":"79.3049","REV_AT_EPOCH":"2893","TLE_LINE1":"1 48460U 21040AJ  21314.73443610  .00000759  00000-0  69837-4 0  9996","OBJECT_TYPE":"PAYLOAD","SITE":"AFETR","COUNTRY_CODE":"US","TLE_LINE2":"2 48460  53.0563  79.3049 0001275  93.9695 266.1440 15.06397942 28935","MEAN_MOTION":"15.06397942","OBJECT_ID":"2021-040AJ","LAUNCH_DATE":"2021-05-09","EPOCH":"2021-11-10T17:37:35.279040","MEAN_ELEMENT_THEORY":"SGP4","BSTAR":"0.00006983700000","FILE":"3211038","CLASSIFICATION_TYPE":"U","REF_FRAME":"TEME","ELEMENT_SET_NO":"999","PERIOD":"95.592","OBJECT_NAME":"STARLINK-2582","MEAN_ANOMALY":"266.1440","RCS_SIZE":"LARGE","NORAD_CAT_ID":"48460","INCLINATION":"53.0563","SEMIMAJOR_AXIS":"6925.355","ECCENTRICITY":"0.00012750","ARG_OF_PERICENTER":"93.9695","TIME_SYSTEM":"UTC","CENTER_NAME":"EARTH","PERIAPSIS":"546.337","MEAN_MOTION_DOT":"0.00000759","GP_ID":"189425586","MEAN_MOTION_DDOT":"0.0000000000000"},{"OBJECT_ID":"2021-040AK","TLE_LINE2":"2 48461  53.0557  81.0218 0001400  95.9768 264.1381 15.06397761 29640","MEAN_MOTION":"15.06397761","COUNTRY_CODE":"US","MEAN_ELEMENT_THEORY":"SGP4","EPOCH":"2021-11-10T08:25:36.496704","LAUNCH_DATE":"2021-05-09","EPHEMERIS_TYPE":"0","APOAPSIS":"548.190","DECAY_DATE":null,"RA_OF_ASC_NODE":"81.0218","SITE":"AFETR","OBJECT_TYPE":"PAYLOAD","TLE_LINE1":"1 48461U 21040AK  21314.35111686  .00001802  00000-0  13983-3 0  9990","REV_AT_EPOCH":"2964","ECCENTRICITY":"0.00014000","ARG_OF_PERICENTER":"95.9768","TIME_SYSTEM":"UTC","MEAN_MOTION_DDOT":"0.0000000000000","GP_ID":"189372358","CENTER_NAME":"EARTH","PERIAPSIS":"546.251","MEAN_MOTION_DOT":"0.00001802","BSTAR":"0.00013983000000","REF_FRAME":"TEME","CLASSIFICATION_TYPE":"U","FILE":"3210700","MEAN_ANOMALY":"264.1381","OBJECT_NAME":"STARLINK-2693","ELEMENT_SET_NO":"999","PERIOD":"95.592","SEMIMAJOR_AXIS":"6925.355","NORAD_CAT_ID":"48461","INCLINATION":"53.0557","RCS_SIZE":"LARGE"},{"MEAN_ELEMENT_THEORY":"SGP4","EPOCH":"2021-11-10T12:09:11.111904","LAUNCH_DATE":"2021-05-09","OBJECT_ID":"2021-040AL","TLE_LINE2":"2 48462  53.0523  85.3385 0001354  72.5662 287.5475 15.06393231 28929","MEAN_MOTION":"15.06393231","COUNTRY_CODE":"US","SITE":"AFETR","OBJECT_TYPE":"PAYLOAD","TLE_LINE1":"1 48462U 21040AL  21314.50637861  .00001715  00000-0  13402-3 0  9995","REV_AT_EPOCH":"2892","RA_OF_ASC_NODE":"85.3385","EPHEMERIS_TYPE":"0","APOAPSIS":"548.172","DECAY_DATE":null,"MEAN_MOTION_DDOT":"0.0000000000000","GP_ID":"189372044","PERIAPSIS":"546.297","CENTER_NAME":"EARTH","MEAN_MOTION_DOT":"0.00001715","TIME_SYSTEM":"UTC","ARG_OF_PERICENTER":"72.5662","ECCENTRICITY":"0.00013540","SEMIMAJOR_AXIS":"6925.369","NORAD_CAT_ID":"48462","INCLINATION":"53.0523","RCS_SIZE":"LARGE","MEAN_ANOMALY":"287.5475","OBJECT_NAME":"STARLINK-2683","PERIOD":"95.593","ELEMENT_SET_NO":"999","REF_FRAME":"TEME","CLASSIFICATION_TYPE":"U","FILE":"3210700","BSTAR":"0.00013402000000"},{"FILE":"3211038","REF_FRAME":"TEME","CLASSIFICATION_TYPE":"U","BSTAR":"0.00011179000000","INCLINATION":"53.0567","NORAD_CAT_ID":"48463","RCS_SIZE":"LARGE","SEMIMAJOR_AXIS":"6925.355","OBJECT_NAME":"STARLINK-2689","PERIOD":"95.592","ELEMENT_SET_NO":"999","MEAN_ANOMALY":"280.2457","ARG_OF_PERICENTER":"79.8681","ECCENTRICITY":"0.00013250","GP_ID":"189425510","PERIAPSIS":"546.302","MEAN_MOTION_DOT":"0.00001384","CENTER_NAME":"EARTH","MEAN_MOTION_DDOT":"0.0000000000000","TIME_SYSTEM":"UTC","RA_OF_ASC_NODE":"83.9948","APOAPSIS":"548.137","DECAY_DATE":null,"EPHEMERIS_TYPE":"0","OBJECT_TYPE":"PAYLOAD","REV_AT_EPOCH":"2837","TLE_LINE1":"1 48463U 21040AM  21314.80492886  .00001384  00000-0  11179-3 0  9996","SITE":"AFETR","EPOCH":"2021-11-10T19:19:05.853504","LAUNCH_DATE":"2021-05-09","MEAN_ELEMENT_THEORY":"SGP4","COUNTRY_CODE":"US","MEAN_MOTION":"15.06398013","TLE_LINE2":"2 48463  53.0567  83.9948 0001325  79.8681 280.2457 15.06398013 28378","OBJECT_ID":"2021-040AM"},{"RA_OF_ASC_NODE":"84.0901","EPHEMERIS_TYPE":"0","APOAPSIS":"548.309","DECAY_DATE":null,"SITE":"AFETR","OBJECT_TYPE":"PAYLOAD","TLE_LINE1":"1 48464U 21040AN  21314.78373325 -.00000388  00000-0 -71416-5 0  9997","REV_AT_EPOCH":"2836","MEAN_ELEMENT_THEORY":"SGP4","EPOCH":"2021-11-10T18:48:34.552800","LAUNCH_DATE":"2021-05-09","TLE_LINE2":"2 48464  53.0574  84.0901 0001583  78.6377 281.4790 15.06400149 28369","OBJECT_ID":"2021-040AN","MEAN_MOTION":"15.06400149","COUNTRY_CODE":"US","REF_FRAME":"TEME","CLASSIFICATION_TYPE":"U","FILE":"3211038","BSTAR":"-0.00000714160000","SEMIMAJOR_AXIS":"6925.348","INCLINATION":"53.0574","NORAD_CAT_ID":"48464","RCS_SIZE":"LARGE","MEAN_ANOMALY":"281.4790","OBJECT_NAME":"STARLINK-2686","ELEMENT_SET_NO":"999","PERIOD":"95.592","ARG_OF_PERICENTER":"78.6377","ECCENTRICITY":"0.00015830","MEAN_MOTION_DDOT":"0.0000000000000","GP_ID":"189425965","PERIAPSIS":"546.117","CENTER_NAME":"EARTH","MEAN_MOTION_DOT":"-0.00000388","TIME_SYSTEM":"UTC"},{"OBJECT_TYPE":"PAYLOAD","REV_AT_EPOCH":"2836","TLE_LINE1":"1 48465U 21040AP  21314.72844845  .00001647  00000-0  12943-3 0  9997","SITE":"AFETR","RA_OF_ASC_NODE":"84.3257","APOAPSIS":"548.027","DECAY_DATE":null,"EPHEMERIS_TYPE":"0","EPOCH":"2021-11-10T17:28:57.946080","LAUNCH_DATE":"2021-05-09","MEAN_ELEMENT_THEORY":"SGP4","COUNTRY_CODE":"US","TLE_LINE2":"2 48465  53.0574  84.3257 0001171  74.9314 285.1805 15.06399097 28367","MEAN_MOTION":"15.06399097","OBJECT_ID":"2021-040AP","NORAD_CAT_ID":"48465","INCLINATION":"53.0574","RCS_SIZE":"LARGE","SEMIMAJOR_AXIS":"6925.351","OBJECT_NAME":"STARLINK-2681","PERIOD":"95.592","ELEMENT_SET_NO":"999","MEAN_ANOMALY":"285.1805","FILE":"3211038","REF_FRAME":"TEME","CLASSIFICATION_TYPE":"U","BSTAR":"0.00012943000000","GP_ID":"189426083","PERIAPSIS":"546.405","MEAN_MOTION_DOT":"0.00001647","CENTER_NAME":"EARTH","MEAN_MOTION_DDOT":"0.0000000000000","TIME_SYSTEM":"UTC","ARG_OF_PERICENTER":"74.9314","ECCENTRICITY":"0.00011710"}];
